NORAD_CAT_ID,OBJECT_NAME,OBJECT_TYPE,EPOCH,MEAN_MOTION,ECCENTRICITY,INCLINATION,RA_OF_ASC_NODE,ARG_OF_PERICENTER,MEAN_ANOMALY,BSTAR,MEAN_MOTION_DOT,MEAN_MOTION_DDOT,TLE_LINE0,TLE_LINE1,TLE_LINE2,SEMIMAJOR_AXIS,PERIOD,APOGEE,PERIGEE,DECAYED
53715.0,STARLINK-4686,PAYLOAD,2023-09-22 22:02:21,15.08850791,0.0001673,53.2163,328.5809,65.9782,294.1386,0.00023186,3.405e-05,0.0,0 STARLINK-4686,1 53715U 22107R   23265.91830050  .00003405  00000-0  23186-3 0  9992,2 53715  53.2163 328.5809 0001673  65.9782 294.1386 15.08850791 58732,6917.847,95.437,540.87,538.555,0.0
53715.0,STARLINK-4686,PAYLOAD,2023-09-23 10:45:26,15.08850161,0.0001636,53.2175,326.2009,77.1419,282.9756,0.00021688,3.166e-05,0.0,0 STARLINK-4686,1 53715U 22107R   23266.44821913  .00003166  00000-0  21688-3 0  9998,2 53715  53.2175 326.2009 0001636  77.1419 282.9756 15.08850161 58819,6917.849,95.437,540.846,538.583,0.0
53715.0,STARLINK-4686,PAYLOAD,2023-09-24 10:36:13,15.08845827,0.0001465,53.2173,321.7375,80.4881,279.6277,7.2742e-05,8.7e-06,0.0,0 STARLINK-4686,1 53715U 22107R   23267.44181824  .00000870  00000-0  72742-4 0  9996,2 53715  53.2173 321.7375 0001465  80.4881 279.6277 15.08845827 58503,6917.863,95.437,540.741,538.714,0.0
53715.0,STARLINK-4686,PAYLOAD,2023-09-24 13:46:59,15.08851039,0.0001499,53.2173,321.1432,80.0248,280.0913,0.00019459,2.811e-05,0.0,0 STARLINK-4686,1 53715U 22107R   23267.57429621  .00002811  00000-0  19459-3 0  9992,2 53715  53.2173 321.1432 0001499  80.0248 280.0913 15.08851039 58988,6917.847,95.437,540.749,538.675,0.0
53715.0,STARLINK-4686,PAYLOAD,2023-09-25 02:30:04,15.08837115,0.0001537,53.2171,318.7666,85.4549,274.6619,5.4599e-05,5.81e-06,0.0,0 STARLINK-4686,1 53715U 22107R   23268.10422252  .00000581  00000-0  54599-4 0  9992,2 53715  53.2171 318.7666 0001537  85.4549 274.6619 15.08837115 58603,6917.889,95.438,540.817,538.691,0.0
53715.0,STARLINK-4686,PAYLOAD,2023-09-25 10:27:00,15.08850723,0.0001616,53.2179,317.2823,87.9407,272.177,0.00027841,4.147e-05,0.0,0 STARLINK-4686,1 53715U 22107R   23268.43541720  .00004147  00000-0  27841-3 0  9991,2 53715  53.2179 317.2823 0001616  87.9407 272.1770 15.08850723 58654,6917.848,95.437,540.831,538.595,0.0
53715.0,STARLINK-4686,PAYLOAD,2023-09-25 15:13:09,15.0886034,0.0001575,53.2176,316.3882,93.9026,266.2146,0.00046375,7.104e-05,0.0,0 STARLINK-4686,1 53715U 22107R   23268.63413281  .00007104  00000-0  46375-3 0  9992,2 53715  53.2176 316.3882 0001575  93.9026 266.2146 15.08860340 59146,6917.818,95.436,540.773,538.594,0.0
53715.0,STARLINK-4686,PAYLOAD,2023-09-26 08:42:23,15.08854518,0.0001559,53.2169,313.1178,105.3004,254.8161,0.00041955,6.398e-05,0.0,0 STARLINK-4686,1 53715U 22107R   23269.36277656  .00006398  00000-0  41955-3 0  9990,2 53715  53.2169 313.1178 0001559 105.3004 254.8161 15.08854518 58797,6917.836,95.437,540.78,538.623,0.0
53715.0,STARLINK-4686,PAYLOAD,2023-09-27 08:33:11,15.08840902,0.0002381,53.2183,308.6583,49.8967,310.2233,0.00019408,2.802e-05,0.0,0 STARLINK-4686,1 53715U 22107R   23270.35638679  .00002802  00000-0  19408-3 0  9991,2 53715  53.2183 308.6583 0002381  49.8967 310.2233 15.08840902 58942,6917.878,95.437,541.39,538.095,0.0
53715.0,STARLINK-4686,PAYLOAD,2023-09-27 11:43:57,15.08843017,0.0001601,53.2166,308.0617,81.5936,278.5238,0.00020129,2.917e-05,0.0,0 STARLINK-4686,1 53715U 22107R   23270.48886232  .00002917  00000-0  20129-3 0  9994,2 53715  53.2166 308.0617 0001601  81.5936 278.5238 15.08843017 59423,6917.871,95.437,540.844,538.629,0.0
53715.0,STARLINK-4686,PAYLOAD,2023-09-28 11:34:45,15.08835373,0.0002419,53.2169,303.6018,49.8025,310.3179,1.2758e-05,-8.5e-07,0.0,0 STARLINK-4686,1 53715U 22107R   23271.48247388 -.00000085  00000-0  12758-4 0  9993,2 53715  53.2169 303.6018 0002419  49.8025 310.3179 15.08835373 59117,6917.895,95.438,541.433,538.086,0.0
53715.0,STARLINK-4686,PAYLOAD,2023-09-29 11:25:33,15.0883798,0.0001639,53.2177,299.1396,91.3037,268.8142,8.9569e-05,1.138e-05,0.0,0 STARLINK-4686,1 53715U 22107R   23272.47607695  .00001138  00000-0  89569-4 0  9997,2 53715  53.2177 299.1396 0001639  91.3037 268.8142 15.08837980 59722,6917.887,95.438,540.885,538.618,0.0
53715.0,STARLINK-4686,PAYLOAD,2023-09-30 04:54:46,15.08854372,0.0001634,53.2161,295.8692,96.6414,263.4764,0.00043602,6.661e-05,0.0,0 STARLINK-4686,1 53715U 22107R   23273.20470930  .00006661  00000-0  43602-3 0  9992,2 53715  53.2161 295.8692 0001634  96.6414 263.4764 15.08854372 59836,6917.836,95.437,540.832,538.571,0.0
53715.0,STARLINK-4686,PAYLOAD,2023-09-30 08:05:32,15.08862995,0.0001591,53.2169,295.2739,109.2521,250.8643,0.00056121,8.661e-05,0.0,0 STARLINK-4686,1 53715U 22107R   23273.33718318  .00008661  00000-0  56121-3 0  9993,2 53715  53.2169 295.2739 0001591 109.2521 250.8643 15.08862995 59399,6917.81,95.436,540.776,538.574,0.0
53715.0,STARLINK-4686,PAYLOAD,2023-09-30 22:24:01,15.08849327,0.0001567,53.2155,292.5975,98.4095,261.7075,0.00024026,3.539e-05,0.0,0 STARLINK-4686,1 53715U 22107R   23273.93334950  .00003539  00000-0  24026-3 0  9993,2 53715  53.2155 292.5975 0001567  98.4095 261.7075 15.08849327 59488,6917.852,95.437,540.801,538.633,0.0
53715.0,STARLINK-4686,PAYLOAD,2023-10-01 11:07:05,15.08852055,0.0001597,53.2154,290.2181,98.9533,261.164,0.00031274,4.694e-05,0.0,0 STARLINK-4686,1 53715U 22107R   23274.46326387  .00004694  00000-0  31274-3 0  9993,2 53715  53.2154 290.2181 0001597  98.9533 261.1640 15.08852055 60022,6917.844,95.437,540.813,538.604,0.0
53715.0,STARLINK-4686,PAYLOAD,2023-10-02 01:25:34,15.0882996,0.0001618,53.2157,287.5428,90.0139,270.1039,-8.2115e-05,-1.594e-05,0.0,0 STARLINK-4686,1 53715U 22107R   23275.05943181 -.00001594  00000-0 -82115-4 0  9995,2 53715  53.2157 287.5428 0001618  90.0139 270.1039 15.08829960 59655,6917.911,95.438,540.895,538.657,0.0
53715.0,STARLINK-4686,PAYLOAD,2023-10-02 17:19:26,15.08837256,0.0001658,53.2153,284.5686,94.0375,266.0807,3.3633e-05,2.47e-06,0.0,0 STARLINK-4686,1 53715U 22107R   23275.72183366  .00000247  00000-0  33633-4 0  9993,2 53715  53.2153 284.5686 0001658  94.0375 266.0807 15.08837256 60212,6917.889,95.438,540.901,538.607,0.0
53715.0,STARLINK-4686,PAYLOAD,2023-10-03 04:27:08,15.08841756,0.0001676,53.2153,282.4868,96.4206,263.6977,0.00026916,3.998e-05,0.0,0 STARLINK-4686,1 53715U 22107R   23276.18551476  .00003998  00000-0  26916-3 0  9996,2 53715  53.2153 282.4868 0001676  96.4206 263.6977 15.08841756 59826,6917.875,95.437,540.899,538.581,0.0
53715.0,STARLINK-4686,PAYLOAD,2023-10-03 12:24:03,15.08855276,0.0001682,53.2154,281.0002,95.091,265.0275,0.00066441,0.00010306,0.0,0 STARLINK-4686,1 53715U 22107R   23276.51671191  .00010306  00000-0  66441-3 0  9998,2 53715  53.2154 281.0002 0001682  95.0910 265.0275 15.08855276 60333,6917.834,95.437,540.862,538.535,0.0
53715.0,STARLINK-4686,PAYLOAD,2023-10-04 09:04:04,15.08845639,0.0001767,53.2155,277.1353,92.7839,267.3355,0.00041744,6.363e-05,0.0,0 STARLINK-4686,1 53715U 22107R   23277.37783530  .00006363  00000-0  41744-3 0  9991,2 53715  53.2155 277.1353 0001767  92.7839 267.3355 15.08845639 60007,6917.863,95.437,540.951,538.506,0.0
53715.0,STARLINK-4686,PAYLOAD,2023-10-04 10:39:28,15.08853825,0.0001645,53.2157,276.8373,88.6262,271.4919,0.00077297,0.0001204,0.0,0 STARLINK-4686,1 53715U 22107R   23277.44407410  .00012040  00000-0  77297-3 0  9990,2 53715  53.2157 276.8373 0001645  88.6262 271.4919 15.08853825 60475,6917.838,95.437,540.841,538.565,0.0
53715.0,STARLINK-4686,PAYLOAD,2023-10-04 17:01:00,15.08844002,0.0001638,53.2157,275.6473,92.9194,267.1985,0.00051342,7.893e-05,0.0,0 STARLINK-4686,1 53715U 22107R   23277.70903653  .00007893  00000-0  51342-3 0  9992,2 53715  53.2157 275.6473 0001638  92.9194 267.1985 15.08844002 60514,6917.868,95.437,540.866,538.6,0.0
53715.0,STARLINK-4686,PAYLOAD,2023-10-05 12:05:37,15.08868938,0.0001744,53.2154,272.0792,94.2433,265.8758,0.0017822,0.00028212,0.0,0 STARLINK-4686,1 53715U 22107R   23278.50391111  .00028212  00000-0  17822-2 0  9993,2 53715  53.2154 272.0792 0001744  94.2433 265.8758 15.08868938 60635,6917.792,95.436,540.863,538.45,0.0
53715.0,STARLINK-4686,PAYLOAD,2023-10-05 16:51:47,15.08836511,0.0002366,53.2151,271.1875,89.8158,270.3106,0.00022926,3.362e-05,0.0,0 STARLINK-4686,1 53715U 22107R   23278.70263849  .00003362  00000-0  22926-3 0  9992,2 53715  53.2151 271.1875 0002366  89.8158 270.3106 15.08836511 60202,6917.891,95.438,541.393,538.119,0.0
53715.0,STARLINK-4686,PAYLOAD,2023-10-06 11:56:25,15.0885059,0.0001618,53.2146,267.6191,93.4391,266.6786,0.0014053,0.00022155,0.0,0 STARLINK-4686,1 53715U 22107R   23279.49751516  .00022155  00000-0  14053-2 0  9994,2 53715  53.2146 267.6191 0001618  93.4391 266.6786 15.08850590 60784,6917.848,95.437,540.832,538.594,0.0
53715.0,STARLINK-4686,PAYLOAD,2023-10-06 16:42:34,15.0884576,3.14e-05,53.2146,266.7266,205.5513,154.5464,0.00071405,0.00011096,0.0,0 STARLINK-4686,1 53715U 22107R   23279.69623196  .00011096  00000-0  71405-3 0  9995,2 53715  53.2146 266.7266 0000314 205.5513 154.5464 15.08845760 60816,6917.863,95.437,539.945,539.511,0.0
53715.0,STARLINK-4686,PAYLOAD,2023-10-07 08:36:26,15.08850286,0.000158,53.2166,263.7533,88.6755,271.4418,0.0012823,0.00020184,0.0,0 STARLINK-4686,1 53715U 22107R   23280.35863975  .00020184  00000-0  12823-2 0  9997,2 53715  53.2166 263.7533 0001580  88.6755 271.4418 15.08850286 60453,6917.849,95.437,540.807,538.621,0.0
53715.0,STARLINK-4686,PAYLOAD,2023-10-08 02:05:40,15.08853163,0.0001418,53.2147,260.4804,83.0767,277.0387,0.0010621,0.00016662,0.0,0 STARLINK-4686,1 53715U 22107R   23281.08727984  .00016662  00000-0  10621-2 0  9997,2 53715  53.2147 260.4804 0001418  83.0767 277.0387 15.08853163 60565,6917.84,95.437,540.686,538.724,0.0
53715.0,STARLINK-4686,PAYLOAD,2023-10-08 08:27:13,15.08869228,0.0001449,53.2158,259.2931,98.6452,261.4705,0.001124,0.0001766,0.0,0 STARLINK-4686,1 53715U 22107R   23281.35223489  .00017660  00000-0  11240-2 0  9995,2 53715  53.2158 259.2931 0001449  98.6452 261.4705 15.08869228 61067,6917.791,95.436,540.658,538.654,0.0
